[{"OBJECT_NAME":"STARLINK-37159","OBJECT_ID":"2026-055Y","EPOCH":"2026-04-04T20:00:01.999008","MEAN_MOTION":15.8078151,"ECCENTRICITY":9.71e-5,"INCLINATION":53.1586,"RA_OF_ASC_NODE":206.0824,"ARG_OF_PERICENTER":81.1796,"MEAN_ANOMALY":114.9453,"EPHEMERIS_TYPE":0,"CLASSIFICATION_TYPE":"U","NORAD_CAT_ID":68284,"ELEMENT_SET_NO":999,"REV_AT_EPOCH":383,"BSTAR":0.0012057,"MEAN_MOTION_DOT":0.00243067,"MEAN_MOTION_DDOT":0},{"OBJECT_NAME":"STARLINK-36725","OBJECT_ID":"2026-055Z","EPOCH":"2026-04-04T20:00:01.999008","MEAN_MOTION":15.80760762,"ECCENTRICITY":0.0001057,"INCLINATION":53.1586,"RA_OF_ASC_NODE":206.0725,"ARG_OF_PERICENTER":71.8831,"MEAN_ANOMALY":128.5433,"EPHEMERIS_TYPE":0,"CLASSIFICATION_TYPE":"U","NORAD_CAT_ID":68285,"ELEMENT_SET_NO":999,"REV_AT_EPOCH":383,"BSTAR":0.001297,"MEAN_MOTION_DOT":0.00261834,"MEAN_MOTION_DDOT":0},{"OBJECT_NAME":"STARLINK-36998","OBJECT_ID":"2026-055AA","EPOCH":"2026-04-04T20:00:01.999008","MEAN_MOTION":15.80813922,"ECCENTRICITY":0.0001489,"INCLINATION":53.1586,"RA_OF_ASC_NODE":206.0572,"ARG_OF_PERICENTER":64.2827,"MEAN_ANOMALY":144.6775,"EPHEMERIS_TYPE":0,"CLASSIFICATION_TYPE":"U","NORAD_CAT_ID":68286,"ELEMENT_SET_NO":999,"REV_AT_EPOCH":383,"BSTAR":0.00068854,"MEAN_MOTION_DOT":0.00137,"MEAN_MOTION_DDOT":0},{"OBJECT_NAME":"STARLINK-37165","OBJECT_ID":"2026-055AB","EPOCH":"2026-04-04T20:00:01.999008","MEAN_MOTION":15.80798577,"ECCENTRICITY":9.38e-5,"INCLINATION":53.1587,"RA_OF_ASC_NODE":206.0465,"ARG_OF_PERICENTER":81.3907,"MEAN_ANOMALY":131.8427,"EPHEMERIS_TYPE":0,"CLASSIFICATION_TYPE":"U","NORAD_CAT_ID":68287,"ELEMENT_SET_NO":999,"REV_AT_EPOCH":383,"BSTAR":0.00085024,"MEAN_MOTION_DOT":0.00169865,"MEAN_MOTION_DDOT":0},{"OBJECT_NAME":"STARLINK-37016","OBJECT_ID":"2026-055AC","EPOCH":"2026-04-04T20:00:01.999008","MEAN_MOTION":15.80746284,"ECCENTRICITY":0.0001101,"INCLINATION":53.1586,"RA_OF_ASC_NODE":206.0644,"ARG_OF_PERICENTER":94.3687,"MEAN_ANOMALY":110.3258,"EPHEMERIS_TYPE":0,"CLASSIFICATION_TYPE":"U","NORAD_CAT_ID":68288,"ELEMENT_SET_NO":999,"REV_AT_EPOCH":383,"BSTAR":0.0012337,"MEAN_MOTION_DOT":0.00248484,"MEAN_MOTION_DDOT":0},{"OBJECT_NAME":"STARLINK-37010","OBJECT_ID":"2026-055AD","EPOCH":"2026-04-04T20:00:01.999008","MEAN_MOTION":15.80742707,"ECCENTRICITY":9.92e-5,"INCLINATION":53.1587,"RA_OF_ASC_NODE":206.0375,"ARG_OF_PERICENTER":58.0853,"MEAN_ANOMALY":159.4138,"EPHEMERIS_TYPE":0,"CLASSIFICATION_TYPE":"U","NORAD_CAT_ID":68289,"ELEMENT_SET_NO":999,"REV_AT_EPOCH":383,"BSTAR":0.0012063,"MEAN_MOTION_DOT":0.00242735,"MEAN_MOTION_DDOT":0},{"OBJECT_NAME":"STARLINK-37151","OBJECT_ID":"2026-055AE","EPOCH":"2026-04-04T20:00:01.999008","MEAN_MOTION":15.80746056,"ECCENTRICITY":0.0001076,"INCLINATION":53.1588,"RA_OF_ASC_NODE":206.0284,"ARG_OF_PERICENTER":76.244,"MEAN_ANOMALY":145.5398,"EPHEMERIS_TYPE":0,"CLASSIFICATION_TYPE":"U","NORAD_CAT_ID":68290,"ELEMENT_SET_NO":999,"REV_AT_EPOCH":383,"BSTAR":0.001273,"MEAN_MOTION_DOT":0.00256662,"MEAN_MOTION_DDOT":0},{"OBJECT_NAME":"STRIX-6","OBJECT_ID":"2026-056A","EPOCH":"2026-04-04T18:37:23.471040","MEAN_MOTION":14.99701469,"ECCENTRICITY":0.0016505,"INCLINATION":50.2837,"RA_OF_ASC_NODE":336.6892,"ARG_OF_PERICENTER":322.5494,"MEAN_ANOMALY":37.4303,"EPHEMERIS_TYPE":0,"CLASSIFICATION_TYPE":"U","NORAD_CAT_ID":68291,"ELEMENT_SET_NO":999,"REV_AT_EPOCH":225,"BSTAR":0.00049311,"MEAN_MOTION_DOT":5.912e-5,"MEAN_MOTION_DDOT":0},{"OBJECT_NAME":"ELECTRON KICK STAGE R/B","OBJECT_ID":"2026-056C","EPOCH":"2026-04-04T17:05:50.005248","MEAN_MOTION":15.41158011,"ECCENTRICITY":0.0152686,"INCLINATION":50.2918,"RA_OF_ASC_NODE":332.5214,"ARG_OF_PERICENTER":71.7105,"MEAN_ANOMALY":290.0406,"EPHEMERIS_TYPE":0,"CLASSIFICATION_TYPE":"U","NORAD_CAT_ID":68293,"ELEMENT_SET_NO":999,"REV_AT_EPOCH":231,"BSTAR":0.001539,"MEAN_MOTION_DOT":0.00100039,"MEAN_MOTION_DDOT":0},{"OBJECT_NAME":"STARLINK-37107","OBJECT_ID":"2026-057A","EPOCH":"2026-04-04T20:00:01.999008","MEAN_MOTION":15.83527851,"ECCENTRICITY":0.0001192,"INCLINATION":97.2824,"RA_OF_ASC_NODE":218.4851,"ARG_OF_PERICENTER":73.0495,"MEAN_ANOMALY":301.6118,"EPHEMERIS_TYPE":0,"CLASSIFICATION_TYPE":"U","NORAD_CAT_ID":68294,"ELEMENT_SET_NO":999,"REV_AT_EPOCH":336,"BSTAR":-0.0070992,"MEAN_MOTION_DOT":-0.01352556,"MEAN_MOTION_DDOT":0},{"OBJECT_NAME":"STARLINK-37147","OBJECT_ID":"2026-057B","EPOCH":"2026-04-04T20:00:01.999008","MEAN_MOTION":15.835712,"ECCENTRICITY":0.0001116,"INCLINATION":97.2818,"RA_OF_ASC_NODE":218.4857,"ARG_OF_PERICENTER":82.2664,"MEAN_ANOMALY":296.5444,"EPHEMERIS_TYPE":0,"CLASSIFICATION_TYPE":"U","NORAD_CAT_ID":68295,"ELEMENT_SET_NO":999,"REV_AT_EPOCH":335,"BSTAR":-0.0070883,"MEAN_MOTION_DOT":-0.01353124,"MEAN_MOTION_DDOT":0},{"OBJECT_NAME":"STARLINK-37142","OBJECT_ID":"2026-057C","EPOCH":"2026-04-04T20:00:01.999008","MEAN_MOTION":15.83621563,"ECCENTRICITY":0.0001312,"INCLINATION":97.2808,"RA_OF_ASC_NODE":218.4909,"ARG_OF_PERICENTER":74.4107,"MEAN_ANOMALY":317.2359,"EPHEMERIS_TYPE":0,"CLASSIFICATION_TYPE":"U","NORAD_CAT_ID":68296,"ELEMENT_SET_NO":999,"REV_AT_EPOCH":324,"BSTAR":-0.0072667,"MEAN_MOTION_DOT":-0.01385864,"MEAN_MOTION_DDOT":0},{"OBJECT_NAME":"STARLINK-37115","OBJECT_ID":"2026-057D","EPOCH":"2026-04-04T20:00:01.999008","MEAN_MOTION":15.8357289,"ECCENTRICITY":0.0001203,"INCLINATION":97.2807,"RA_OF_ASC_NODE":218.4881,"ARG_OF_PERICENTER":82.2553,"MEAN_ANOMALY":305.1901,"EPHEMERIS_TYPE":0,"CLASSIFICATION_TYPE":"U","NORAD_CAT_ID":68297,"ELEMENT_SET_NO":999,"REV_AT_EPOCH":324,"BSTAR":-0.0071241,"MEAN_MOTION_DOT":-0.01359269,"MEAN_MOTION_DDOT":0},{"OBJECT_NAME":"STARLINK-36355","OBJECT_ID":"2026-057E","EPOCH":"2026-04-04T20:00:01.999008","MEAN_MOTION":15.83596307,"ECCENTRICITY":9.76e-5,"INCLINATION":97.2814,"RA_OF_ASC_NODE":218.4872,"ARG_OF_PERICENTER":88.5875,"MEAN_ANOMALY":294.4354,"EPHEMERIS_TYPE":0,"CLASSIFICATION_TYPE":"U","NORAD_CAT_ID":68298,"ELEMENT_SET_NO":999,"REV_AT_EPOCH":351,"BSTAR":-0.0070743,"MEAN_MOTION_DOT":-0.01352116,"MEAN_MOTION_DDOT":0},{"OBJECT_NAME":"STARLINK-37118","OBJECT_ID":"2026-057F","EPOCH":"2026-04-04T20:00:01.999008","MEAN_MOTION":15.83638871,"ECCENTRICITY":0.0001362,"INCLINATION":97.28,"RA_OF_ASC_NODE":218.4938,"ARG_OF_PERICENTER":68.5842,"MEAN_ANOMALY":331.747,"EPHEMERIS_TYPE":0,"CLASSIFICATION_TYPE":"U","NORAD_CAT_ID":68299,"ELEMENT_SET_NO":999,"REV_AT_EPOCH":335,"BSTAR":-0.0076767,"MEAN_MOTION_DOT":-0.0148439,"MEAN_MOTION_DDOT":0},{"OBJECT_NAME":"STARLINK-36875","OBJECT_ID":"2026-057G","EPOCH":"2026-04-04T20:00:01.999008","MEAN_MOTION":15.83597567,"ECCENTRICITY":0.0001375,"INCLINATION":97.2806,"RA_OF_ASC_NODE":218.4923,"ARG_OF_PERICENTER":69.2959,"MEAN_ANOMALY":326.8312,"EPHEMERIS_TYPE":0,"CLASSIFICATION_TYPE":"U","NORAD_CAT_ID":68300,"ELEMENT_SET_NO":999,"REV_AT_EPOCH":341,"BSTAR":-0.007544,"MEAN_MOTION_DOT":-0.01459098,"MEAN_MOTION_DDOT":0},{"OBJECT_NAME":"STARLINK-37099","OBJECT_ID":"2026-057H","EPOCH":"2026-04-04T20:00:01.999008","MEAN_MOTION":15.83574144,"ECCENTRICITY":0.0001428,"INCLINATION":97.2797,"RA_OF_ASC_NODE":218.496,"ARG_OF_PERICENTER":73.5338,"MEAN_ANOMALY":331.3628,"EPHEMERIS_TYPE":0,"CLASSIFICATION_TYPE":"U","NORAD_CAT_ID":68301,"ELEMENT_SET_NO":999,"REV_AT_EPOCH":324,"BSTAR":-0.0079411,"MEAN_MOTION_DOT":-0.01525377,"MEAN_MOTION_DDOT":0}]
