STARLINK-37159          
1 68284U 26055Y   26094.83335647  .00243067  00000+0  12057-2 0  9994
2 68284  53.1586 206.0824 0000971  81.1796 114.9453 15.80781510  3836
STARLINK-36725          
1 68285U 26055Z   26094.83335647  .00261834  00000+0  12970-2 0  9991
2 68285  53.1586 206.0725 0001057  71.8831 128.5433 15.80760762  3834
STARLINK-36998          
1 68286U 26055AA  26094.83335647  .00137000  00000+0  68854-3 0  9992
2 68286  53.1586 206.0572 0001489  64.2827 144.6775 15.80813922  3830
STARLINK-37165          
1 68287U 26055AB  26094.83335647  .00169865  00000+0  85024-3 0  9995
2 68287  53.1587 206.0465 0000938  81.3907 131.8427 15.80798577  3830
STARLINK-37016          
1 68288U 26055AC  26094.83335647  .00248484  00000+0  12337-2 0  9997
2 68288  53.1586 206.0644 0001101  94.3687 110.3258 15.80746284  3833
STARLINK-37010          
1 68289U 26055AD  26094.83335647  .00242735  00000+0  12063-2 0  9997
2 68289  53.1587 206.0375 0000992  58.0853 159.4138 15.80742707  3832
STARLINK-37151          
1 68290U 26055AE  26094.83335647  .00256662  00000+0  12730-2 0  9994
2 68290  53.1588 206.0284 0001076  76.2440 145.5398 15.80746056  3837
STRIX-6                 
1 68291U 26056A   26094.77596610  .00005912  00000+0  49311-3 0  9994
2 68291  50.2837 336.6892 0016505 322.5494  37.4303 14.99701469  2255
ELECTRON KICK STAGE R/B 
1 68293U 26056C   26094.71238432  .00100039  00000+0  15390-2 0  9990
2 68293  50.2918 332.5214 0152686  71.7105 290.0406 15.41158011  2318
STARLINK-37107          
1 68294U 26057A   26094.83335647 -.01352556  00000+0 -70992-2 0  9996
2 68294  97.2824 218.4851 0001192  73.0495 301.6118 15.83527851  3360
STARLINK-37147          
1 68295U 26057B   26094.83335647 -.01353124  00000+0 -70883-2 0  9998
2 68295  97.2818 218.4857 0001116  82.2664 296.5444 15.83571200  3356
STARLINK-37142          
1 68296U 26057C   26094.83335647 -.01385864  00000+0 -72667-2 0  9997
2 68296  97.2808 218.4909 0001312  74.4107 317.2359 15.83621563  3249
STARLINK-37115          
1 68297U 26057D   26094.83335647 -.01359269  00000+0 -71241-2 0  9995
2 68297  97.2807 218.4881 0001203  82.2553 305.1901 15.83572890  3246
STARLINK-36355          
1 68298U 26057E   26094.83335647 -.01352116  00000+0 -70743-2 0  9996
2 68298  97.2814 218.4872 0000976  88.5875 294.4354 15.83596307  3518
STARLINK-37118          
1 68299U 26057F   26094.83335647 -.01484390  00000+0 -76767-2 0  9999
2 68299  97.2800 218.4938 0001362  68.5842 331.7470 15.83638871  3358
STARLINK-36875          
1 68300U 26057G   26094.83335647 -.01459098  00000+0 -75440-2 0  9996
2 68300  97.2806 218.4923 0001375  69.2959 326.8312 15.83597567  3415
STARLINK-37099          
1 68301U 26057H   26094.83335647 -.01525377  00000+0 -79411-2 0  9993
2 68301  97.2797 218.4960 0001428  73.5338 331.3628 15.83574144  3242
